PROBA-1                 
1 26958U 01049B   22352.49198039  .00001977  00000+0  16845-3 0  9991
2 26958  97.8480 312.6368 0071960  90.1712 270.7755 14.96972334152009
BIRD 2                  
1 26959U 01049C   22352.54975576  .00022249  00000+0  39091-3 0  9990
2 26959  97.7645  97.5101 0006457  72.5875 287.6081 15.50508402481645
CUTE-1 (CO-55)          
1 27844U 03031E   22352.00993228  .00000349  00000+0  17598-3 0  9997
2 27844  98.6793 356.9428 0008865 292.9640  67.0602 14.22561376  9978
CUBESAT XI-IV (CO-57)   
1 27848U 03031J   22352.45304520  .00000305  00000+0  15754-3 0  9995
2 27848  98.6833 357.8552 0008871 307.9191  52.1184 14.22103403  9816
GENESIS 1               
1 29252U 06029A   22352.04471657  .00005808  00000+0  25040-3 0  9999
2 29252  64.5205 187.4662 0047756 234.9985 124.6654 15.22563103906907
FALCONSAT-3             
1 30776U 07006E   22352.41956787  .00197539  00000+0  91164-3 0  9994
2 30776  35.4232 117.8217 0007228  51.8864 308.2527 15.81961856878383
GENESIS 2               
1 31789U 07028A   22352.38562702  .00005804  00000+0  25464-3 0  9992
2 31789  64.4958 230.0063 0059206 286.6742  72.7888 15.21421781853869
APRIZESAT 4             
1 35684U 09041D   22352.02563683  .00000683  00000+0  96528-4 0  9997
2 35684  98.3020  11.9077 0047714 121.9539 238.6323 14.79874408722211
APRIZESAT 3             
1 35686U 09041F   22352.53898058  .00001294  00000+0  14030-3 0  9998
2 35686  98.1027  83.2836 0070453 305.2781  54.1857 14.88313053725989
PROBA-2                 
1 36037U 09059B   22352.46468841  .00000335  00000+0  91292-4 0  9994
2 36037  98.2206 175.6234 0012255 261.0732  98.9077 14.53348506695988
APRIZESAT 5             
1 37792U 11044E   22352.50627559  .00000751  00000+0  11421-3 0  9995
2 37792  98.2987 233.0865 0058307 136.4882 224.0948 14.76005437610288
APRIZESAT 6             
1 37793U 11044F   22352.54350747  .00000740  00000+0  12205-3 0  9991
2 37793  98.3762 210.6484 0046129 190.7754 185.0636 14.72990005608961
PROBA-V                 
1 39159U 13021A   22352.51217975  .00000065  00000+0  46766-4 0  9998
2 39159  98.3381  18.9465 0003005 273.6385  86.4450 14.23065339499506
STPSAT-3                
1 39380U 13064A   22352.39733053  .00086848  00000+0  10250-2 0  9997
2 39380  40.4981   0.4004 0011138 188.4930 171.5705 15.60198882507855
APRIZESAT 7             
1 39416U 13066A   22352.48690129  .00001118  00000+0  13575-3 0  9996
2 39416  97.5959 323.6747 0041896 110.8251 249.7459 14.84806681491344
APRIZESAT 8             
1 39425U 13066K   22352.46904342  .00000872  00000+0  11410-3 0  9991
2 39425  97.6533 315.4699 0051700 156.2966 204.0646 14.81923841490481
BUGSAT-1 (TITA)         
1 40014U 14033E   22352.54084961  .00002128  00000+0  18622-3 0  9995
2 40014  98.1459 358.6076 0030358 145.6535 214.6656 14.97556667463683
SAUDISAT 4              
1 40016U 14033G   22352.53579055  .00000761  00000+0  11649-3 0  9992
2 40016  97.6340 177.2506 0046516 264.0397  95.5511 14.75745235457547
APRIZESAT 9             
1 40018U 14033J   22352.41688800  .00000568  00000+0  98224-4 0  9990
2 40018  97.7297 153.3402 0070407 344.0515  15.8475 14.70461076455688
APRIZESAT 10            
1 40019U 14033K   22352.40156715  .00000460  00000+0  85279-4 0  9992
2 40019  97.7893 143.4091 0084371  30.2777 330.3264 14.67492445454954
TDS 1                   
1 40076U 14037H   22352.40197436  .00002937  00000+0  33856-3 0  9998
2 40076  98.3651 234.9954 0006181 186.6217 173.4916 14.86520795457020
TIANTUO 2               
1 40144U 14053B   22352.58948965  .00008821  00000+0  22104-3 0  9994
2 40144  97.1801  68.9812 0008639 250.9888 216.5877 15.40248726463414
TECHNOSAT               
1 42829U 17042E   22352.57099851  .00002020  00000+0  20194-3 0  9999
2 42829  97.3984 195.8121 0015262 108.9688 251.3188 14.92395710295544
FLYING LAPTOP           
1 42831U 17042G   22352.36201024  .00001228  00000+0  12533-3 0  9993
2 42831  97.3999 195.9566 0015044 109.6172 250.6662 14.92210962295512
HAWK-A                  
1 43765U 18099H   22352.37857184  .00002487  00000+0  21630-3 0  9994
2 43765  97.5980  55.5943 0014593  18.1897 341.9845 14.97785169220669
HAWK-B                  
1 43794U 18099AN  22352.44578649  .00002548  00000+0  22145-3 0  9990
2 43794  97.5980  55.6595 0014616  18.3921 341.7827 14.97782039220662
HAWK-C                  
1 43799U 18099AT  22352.44556621  .00002539  00000+0  22072-3 0  9990
2 43799  97.5978  55.5644 0014533  18.1392 342.0346 14.97783726221414
SALSAT                  
1 46495U 20068K   22352.40695214  .00003738  00000+0  26359-3 0  9997
2 46495  97.7490 294.0484 0016821  18.8195 341.3649 15.05496311121859
